{"type": "FeatureCollection", "features": [ {"type": "Feature", "properties": {"norad_id": 41774, "name": "SKYSAT-C3", "group": "resource", "lat": 57.47799252803621, "lon": -153.8341082443192, "alt_km": 427.5467346340083, "timestamp": "2025-12-07T03:52:32.127487+00:00", "meta": {"OBJECT_NAME": "SKYSAT-C3", "OBJECT_ID": "2016-058E", "EPOCH": "2025-12-06T14:54:26.640288", "MEAN_MOTION": 15.44085474, "ECCENTRICITY": 0.00014956, "INCLINATION": 96.9301, "RA_OF_ASC_NODE": 14.6535, "ARG_OF_PERICENTER": 104.7782, "MEAN_ANOMALY": 255.3634, "EPHEMERIS_TYPE": 0, "CLASSIFICATION_TYPE": "U", "NORAD_CAT_ID": 41774, "ELEMENT_SET_NO": 999, "REV_AT_EPOCH": 51631, "BSTAR": 0.00060121172, "MEAN_MOTION_DOT": 0.00027459, "MEAN_MOTION_DDOT": 0}, "tle": {"line1": "1 41774U 16058E   25340.62114167  .00027459  00000+0  60121-3 0  9994", "line2": "2 41774  96.9301  14.6535 0001495 104.7782 255.3634 15.44085474516311"}}, "geometry": {"type": "Point", "coordinates": [-153.8341082443192, 57.47799252803621]}}, {"type": "Feature", "properties": {"norad_id": 41785, "name": "ALSAT 1B", "group": "resource", "lat": -12.939753494915127, "lon": -5.007540082735396, "alt_km": 664.00066070295, "timestamp": "2025-12-07T03:52:32.127498+00:00", "meta": {"OBJECT_NAME": "ALSAT 1B", "OBJECT_ID": "2016-059C", "EPOCH": "2025-12-06T14:53:02.560992", "MEAN_MOTION": 14.72065917, "ECCENTRICITY": 0.00105398, "INCLINATION": 97.7816, "RA_OF_ASC_NODE": 352.674, "ARG_OF_PERICENTER": 121.1534, "MEAN_ANOMALY": 239.0709, "EPHEMERIS_TYPE": 0, "CLASSIFICATION_TYPE": "U", "NORAD_CAT_ID": 41785, "ELEMENT_SET_NO": 999, "REV_AT_EPOCH": 49224, "BSTAR": 0.00015111142, "MEAN_MOTION_DOT": 9.03e-06, "MEAN_MOTION_DDOT": 0}, "tle": {"line1": "1 41785U 16059C   25340.62016853  .00000903  00000+0  15111-3 0  9994", "line2": "2 41785  97.7816 352.6740 0010539 121.1534 239.0709 14.72065917492240"}}, "geometry": {"type": "Point", "coordinates": [-5.007540082735396, -12.939753494915127]}}, {"type": "Feature", "properties": {"norad_id": 41787, "name": "PATHFINDER 1", "group": "resource", "lat": 18.28024298545532, "lon": 166.79398366463565, "alt_km": 660.4943106191749, "timestamp": "2025-12-07T03:52:32.127508+00:00", "meta": {"OBJECT_NAME": "PATHFINDER 1", "OBJECT_ID": "2016-059E", "EPOCH": "2025-12-06T14:03:07.446240", "MEAN_MOTION": 14.67304824, "ECCENTRICITY": 0.00300327, "INCLINATION": 97.8138, "RA_OF_ASC_NODE": 343.6448, "ARG_OF_PERICENTER": 99.8924, "MEAN_ANOMALY": 260.5674, "EPHEMERIS_TYPE": 0, "CLASSIFICATION_TYPE": "U", "NORAD_CAT_ID": 41787, "ELEMENT_SET_NO": 999, "REV_AT_EPOCH": 49146, "BSTAR": 0.00027378617, "MEAN_MOTION_DOT": 1.509e-05, "MEAN_MOTION_DDOT": 0}, "tle": {"line1": "1 41787U 16059E   25340.58550285  .00001509  00000+0  27379-3 0  9995", "line2": "2 41787  97.8138 343.6448 0030032  99.8924 260.5674 14.67304824491469"}}, "geometry": {"type": "Point", "coordinates": [166.79398366463565, 18.28024298545532]}}, {"type": "Feature", "properties": {"norad_id": 41790, "name": "SCATSAT 1", "group": "resource", "lat": -76.19079502670127, "lon": 73.41232732697482, "alt_km": 668.0370924309973, "timestamp": "2025-12-07T03:52:32.127518+00:00", "meta": {"OBJECT_NAME": "SCATSAT 1", "OBJECT_ID": "2016-059H", "EPOCH": "2025-12-06T15:14:40.981056", "MEAN_MOTION": 14.78905199, "ECCENTRICITY": 0.0055995, "INCLINATION": 98.1471, "RA_OF_ASC_NODE": 37.2296, "ARG_OF_PERICENTER": 147.3077, "MEAN_ANOMALY": 213.162, "EPHEMERIS_TYPE": 0, "CLASSIFICATION_TYPE": "U", "NORAD_CAT_ID": 41790, "ELEMENT_SET_NO": 999, "REV_AT_EPOCH": 7312, "BSTAR": 0.00044817585, "MEAN_MOTION_DOT": 3.335e-05, "MEAN_MOTION_DDOT": 0}, "tle": {"line1": "1 41790U 16059H   25340.63519654  .00003335  00000+0  44818-3 0  9996", "line2": "2 41790  98.1471  37.2296 0055995 147.3077 213.1620 14.78905199 73125"}}, "geometry": {"type": "Point", "coordinates": [73.41232732697482, -76.19079502670127]}}, {"type": "Feature", "properties": {"norad_id": 41875, "name": "GOKTURK 1A", "group": "resource", "lat": -30.60521990255243, "lon": -121.54013889419838, "alt_km": 690.5616751531916, "timestamp": "2025-12-07T03:52:32.127529+00:00", "meta": {"OBJECT_NAME": "GOKTURK 1A", "OBJECT_ID": "2016-073A", "EPOCH": "2025-12-06T14:52:59.467872", "MEAN_MOTION": 14.62768822, "ECCENTRICITY": 0.00012337, "INCLINATION": 98.1436, "RA_OF_ASC_NODE": 233.067, "ARG_OF_PERICENTER": 82.7016, "MEAN_ANOMALY": 277.4326, "EPHEMERIS_TYPE": 0, "CLASSIFICATION_TYPE": "U", "NORAD_CAT_ID": 41875, "ELEMENT_SET_NO": 999, "REV_AT_EPOCH": 48067, "BSTAR": 0.00021714022, "MEAN_MOTION_DOT": 1.06e-05, "MEAN_MOTION_DDOT": 0}, "tle": {"line1": "1 41875U 16073A   25340.62013273  .00001060  00000+0  21714-3 0  9994", "line2": "2 41875  98.1436 233.0670 0001233  82.7016 277.4326 14.62768822480674"}}, "geometry": {"type": "Point", "coordinates": [-121.54013889419838, -30.60521990255243]}}, {"type": "Feature", "properties": {"norad_id": 41877, "name": "RESOURCESAT-2A", "group": "resource", "lat": 55.40093155594624, "lon": -116.00897857079244, "alt_km": 815.4005923745954, "timestamp": "2025-12-07T03:52:32.127540+00:00", "meta": {"OBJECT_NAME": "RESOURCESAT-2A", "OBJECT_ID": "2016-074A", "EPOCH": "2025-12-06T15:28:19.262496", "MEAN_MOTION": 14.21595672, "ECCENTRICITY": 0.00011208, "INCLINATION": 98.7766, "RA_OF_ASC_NODE": 50.536, "ARG_OF_PERICENTER": 284.1853, "MEAN_ANOMALY": 75.92, "EPHEMERIS_TYPE": 0, "CLASSIFICATION_TYPE": "U", "NORAD_CAT_ID": 41877, "ELEMENT_SET_NO": 999, "REV_AT_EPOCH": 46694, "BSTAR": 0.00018238142, "MEAN_MOTION_DOT": 3.55e-06, "MEAN_MOTION_DDOT": 0}, "tle": {"line1": "1 41877U 16074A   25340.64466739  .00000355  00000+0  18238-3 0  9991", "line2": "2 41877  98.7766  50.5360 0001120 284.1853  75.9200 14.21595672466940"}}, "geometry": {"type": "Point", "coordinates": [-116.00897857079244, 55.40093155594624]}}, {"type": "Feature", "properties": {"norad_id": 41948, "name": "CARTOSAT-2D", "group": "resource", "lat": -26.900890813358682, "lon": 42.54544468570864, "alt_km": 516.6570558000521, "timestamp": "2025-12-07T03:52:32.127551+00:00", "meta": {"OBJECT_NAME": "CARTOSAT-2D", "OBJECT_ID": "2017-008A", "EPOCH": "2025-12-06T15:20:54.234240", "MEAN_MOTION": 15.19167369, "ECCENTRICITY": 0.00041239, "INCLINATION": 97.4397, "RA_OF_ASC_NODE": 38.2301, "ARG_OF_PERICENTER": 182.6782, "MEAN_ANOMALY": 177.4432, "EPHEMERIS_TYPE": 0, "CLASSIFICATION_TYPE": "U", "NORAD_CAT_ID": 41948, "ELEMENT_SET_NO": 999, "REV_AT_EPOCH": 48834, "BSTAR": 0.00043939106, "MEAN_MOTION_DOT": 9.177e-05, "MEAN_MOTION_DDOT": 0}, "tle": {"line1": "1 41948U 17008A   25340.63951660  .00009177  00000+0  43939-3 0  9996", "line2": "2 41948  97.4397  38.2301 0004123 182.6782 177.4432 15.19167369488341"}}, "geometry": {"type": "Point", "coordinates": [42.54544468570864, -26.900890813358682]}}, {"type": "Feature", "properties": {"norad_id": 42063, "name": "SENTINEL-2B", "group": "resource", "lat": -81.03492499458251, "lon": 160.71601571447175, "alt_km": 797.1500487996591, "timestamp": "2025-12-07T03:52:32.127561+00:00", "meta": {"OBJECT_NAME": "SENTINEL-2B", "OBJECT_ID": "2017-013A", "EPOCH": "2025-12-06T14:52:53.025888", "MEAN_MOTION": 14.3081242, "ECCENTRICITY": 0.0001131, "INCLINATION": 98.5725, "RA_OF_ASC_NODE": 53.1519, "ARG_OF_PERICENTER": 97.8714, "MEAN_ANOMALY": 262.2598, "EPHEMERIS_TYPE": 0, "CLASSIFICATION_TYPE": "U", "NORAD_CAT_ID": 42063, "ELEMENT_SET_NO": 999, "REV_AT_EPOCH": 45710, "BSTAR": 0.00014259955, "MEAN_MOTION_DOT": 3.3e-06, "MEAN_MOTION_DDOT": 0}, "tle": {"line1": "1 42063U 17013A   25340.62005817  .00000330  00000+0  14260-3 0  9991", "line2": "2 42063  98.5725  53.1519 0001131  97.8714 262.2598 14.30812420457105"}}, "geometry": {"type": "Point", "coordinates": [160.71601571447175, -81.03492499458251]}}, {"type": "Feature", "properties": {"norad_id": 42767, "name": "CARTOSAT-2E", "group": "resource", "lat": -62.18504354534044, "lon": -155.552742863031, "alt_km": 513.8458069852804, "timestamp": "2025-12-07T03:52:32.127572+00:00", "meta": {"OBJECT_NAME": "CARTOSAT-2E", "OBJECT_ID": "2017-036C", "EPOCH": "2025-12-06T15:44:36.297024", "MEAN_MOTION": 15.19230274, "ECCENTRICITY": 0.00023744, "INCLINATION": 97.4563, "RA_OF_ASC_NODE": 38.322, "ARG_OF_PERICENTER": 268.2438, "MEAN_ANOMALY": 91.8525, "EPHEMERIS_TYPE": 0, "CLASSIFICATION_TYPE": "U", "NORAD_CAT_ID": 42767, "ELEMENT_SET_NO": 999, "REV_AT_EPOCH": 46891, "BSTAR": 0.00043878497, "MEAN_MOTION_DOT": 9.18e-05, "MEAN_MOTION_DDOT": 0}, "tle": {"line1": "1 42767U 17036C   25340.65597566  .00009180  00000+0  43878-3 0  9996", "line2": "2 42767  97.4563  38.3220 0002374 268.2438  91.8525 15.19230274468911"}}, "geometry": {"type": "Point", "coordinates": [-155.552742863031, -62.18504354534044]}}, {"type": "Feature", "properties": {"norad_id": 42920, "name": "FORMOSAT-5", "group": "resource", "lat": -44.13543869940771, "lon": -132.49754969517218, "alt_km": 729.038991140068, "timestamp": "2025-12-07T03:52:32.127583+00:00", "meta": {"OBJECT_NAME": "FORMOSAT-5", "OBJECT_ID": "2017-049A", "EPOCH": "2025-12-06T15:15:27.132480", "MEAN_MOTION": 14.50999867, "ECCENTRICITY": 0.00101355, "INCLINATION": 98.2459, "RA_OF_ASC_NODE": 55.0757, "ARG_OF_PERICENTER": 316.0989, "MEAN_ANOMALY": 43.94, "EPHEMERIS_TYPE": 0, "CLASSIFICATION_TYPE": "U", "NORAD_CAT_ID": 42920, "ELEMENT_SET_NO": 999, "REV_AT_EPOCH": 43875, "BSTAR": 0.00014431343, "MEAN_MOTION_DOT": 5.27e-06, "MEAN_MOTION_DDOT": 0}, "tle": {"line1": "1 42920U 17049A   25340.63573070  .00000527  00000+0  14431-3 0  9992", "line2": "2 42920  98.2459  55.0757 0010135 316.0989  43.9400 14.50999867438756"}}, "geometry": {"type": "Point", "coordinates": [-132.49754969517218, -44.13543869940771]}}]}